OBJECT_NAME,OBJECT_ID,EPOCH,MEAN_MOTION,ECCENTRICITY,INCLINATION,RA_OF_ASC_NODE,ARG_OF_PERICENTER,MEAN_ANOMALY,EPHEMERIS_TYPE,CLASSIFICATION_TYPE,NORAD_CAT_ID,ELEMENT_SET_NO,REV_AT_EPOCH,BSTAR,MEAN_MOTION_DOT,MEAN_MOTION_DDOT
TDRS 3,1988-091B,2026-06-25T19:12:46.522944,1.00271031,.0037791,12.5949,340.9469,356.8738,175.4758,0,U,19548,999,12547,0,-.297E-5,0
FLTSATCOM 8 (USA 46),1989-077A,2026-06-25T21:45:01.238976,1.00272987,.0003963,12.4190,351.1107,59.5500,315.4109,0,U,20253,999,26065,0,-.366E-5,0
SKYNET 4C,1990-079A,2026-06-11T04:50:51.491904,1.00274127,.00024002,13.3424,349.8525,96.2313,279.5534,0,U,20776,999,13083,0,.132E-5,0
TDRS 5,1991-054B,2026-06-25T14:59:26.728224,1.00278785,.0005862,14.0699,353.7180,271.5407,65.7992,0,U,21639,999,12779,0,.84E-6,0
TDRS 6,1993-003B,2026-06-26T04:08:19.642848,1.00268080,.0008533,14.1829,356.9915,179.7319,113.7585,0,U,22314,999,12249,0,-.296E-5,0
UFO 2 (USA 95),1993-056A,2026-06-26T04:08:01.490208,1.00272944,.0004567,11.8976,3.5047,8.7210,352.7041,0,U,22787,999,11864,0,.126E-5,0
USA 99 (MILSTAR-1 1),1994-009A,2026-06-25T22:39:27.095904,0.98723857,.0000594,17.6398,27.6155,200.1888,342.3011,0,U,22988,999,3303,0,-.213E-5,0
UFO 4 (USA 108),1995-003A,2026-06-25T19:19:38.750304,1.00273867,.0002998,9.6837,13.1553,78.5129,284.3772,0,U,23467,999,11504,0,-.2E-6,0
TDRS 7,1995-035B,2026-06-25T23:17:12.661152,1.00278963,.0011826,13.3735,348.1290,81.9216,282.3407,0,U,23613,999,11334,0,-.239E-5,0
USA 115 (MILSTAR-1 2),1995-060A,2026-06-26T00:08:36.676320,1.00364254,.0002107,14.0758,3.6840,133.1212,48.1795,0,U,23712,999,3297,0,-.208E-5,0
INMARSAT 3-F1,1996-020A,2026-06-26T03:50:38.440896,0.99978003,.0003834,10.6190,46.5515,65.5965,115.1401,0,U,23839,999,11034,0,-.58E-6,0
INMARSAT 3-F2,1996-053A,2026-06-25T13:16:11.481024,1.00000666,.0006465,9.8751,53.8509,37.8190,162.3111,0,U,24307,999,10900,0,-.311E-5,0
INMARSAT 3-F3,1996-070A,2026-06-25T19:36:13.070880,0.99986568,.0003097,10.3362,49.5703,41.2561,150.7588,0,U,24674,999,10799,0,.129E-5,0
USA 134,1997-065A,2026-06-26T04:14:21.909408,1.00269973,.0003086,12.7947,21.6562,346.9096,216.9327,0,U,25019,999,3304,0,-.63E-6,0
INMARSAT 3-F5,1998-006B,2026-06-26T03:18:38.632032,1.00273212,.0004346,9.7129,53.1719,36.2302,180.5563,0,U,25153,999,10398,0,-.289E-5,0
ABS-6,1999-053A,2026-06-25T19:43:38.666784,1.00269817,.0003647,0.0285,289.7924,170.4978,268.5944,0,U,25924,999,9792,0,-.109E-5,0
UFO 10 (USA 146),1999-063A,2026-06-25T22:19:38.638848,1.00269320,.0001599,9.8408,27.1653,63.7985,135.0117,0,U,25967,999,9743,0,-.187E-5,0
ASIASTAR,2000-016A,2026-06-26T02:47:12.405120,1.00273020,.0004616,9.1501,58.0591,32.6885,330.3177,0,U,26107,999,9601,0,-.332E-5,0
USA 149 (DSP 20),2000-024A,2026-06-26T04:44:50.859168,1.00279678,.0001658,13.1771,11.7891,324.9674,203.5488,0,U,26356,999,3300,0,.95E-6,0
TDRS 8,2000-034A,2026-06-26T02:41:20.469408,1.00275987,.0004808,12.6971,31.2453,23.7879,344.2705,0,U,26388,999,9527,0,-.196E-5,0
NSS-11,2000-059A,2026-06-26T03:07:27.079392,1.00272511,.0003116,2.1496,81.2940,6.9638,48.8553,0,U,26554,999,4138,0,.34E-6,0
USA 153,2000-065A,2026-06-24T15:12:13.445280,1.00268508,.00030892,11.6373,35.3608,48.9917,190.9042,0,U,26575,999,3300,0,-.327E-5,0
AMC-6,2000-067A,2026-06-26T04:28:19.604064,1.00272452,.0003932,0.1752,83.4246,20.9701,101.9478,0,U,26580,999,9398,0,.99E-6,0
USA 157 (MILSTAR-2 2),2001-009A,2026-06-26T05:06:43.835904,1.00267052,.003939,11.5524,19.7094,178.2204,3.1193,0,U,26715,999,3303,0,.11E-5,0
INTELSAT 902 (IS-902),2001-039A,2026-06-26T03:18:38.632032,1.00271695,.0004209,6.1388,71.6744,23.6382,178.5113,0,U,26900,999,9078,0,-.278E-5,0
USA 164 (MILSTAR-2 3),2002-001A,2026-06-25T05:30:38.659968,1.00270169,.0099755,11.1892,21.8601,8.5989,344.5087,0,U,27168,999,3303,0,.97E-6,0
INTELSAT 904 (IS-904),2002-007A,2026-06-26T02:48:29.655360,1.00273226,.0006534,6.9421,69.0793,10.4968,205.3016,0,U,27380,999,5185,0,-.221E-5,0
DIRECTV 5 (TEMPO 1),2002-023A,2026-06-25T18:49:29.927424,1.00272965,.0003506,4.8997,75.2077,26.5739,344.4102,0,U,27426,999,8821,0,-.51E-6,0
INTELSAT 905 (IS-905),2002-027A,2026-06-26T05:00:55.437408,1.00271747,.0004137,6.7759,69.6935,25.9966,116.6677,0,U,27438,999,5145,0,.98E-6,0
GALAXY 3C (G-3C),2002-030A,2026-06-26T04:39:44.348256,1.00272425,.0001949,3.7557,77.8632,25.0083,146.5460,0,U,27445,999,4658,0,-.145E-5,0
INTELSAT 906 (IS-906),2002-041A,2026-06-26T04:18:15.509088,1.00272027,.0004227,5.8247,72.8110,6.8820,323.3205,0,U,27513,999,8711,0,.18E-6,0
